{
    "type": "FeatureCollection",
    "features": [
        {
            "type": "Feature",
            "geometry": {
                "type": "Point",
                "coordinates": [-0.1168946, 51.4967922]
            },
            "properties": {
                "id": "way/4260009",
                "name": "Archbishop's Park"
            }
        },
        {
            "type": "Feature",
            "geometry": {
                "type": "Point",
                "coordinates": [-0.1129016, 51.537203]
            },
            "properties": {
                "id": "relation/19117130",
                "name": "Barnard Park"
            }
        },
        {
            "type": "Feature",
            "geometry": {
                "type": "Point",
                "coordinates": [-0.1574113, 51.4792184]
            },
            "properties": {
                "id": "way/840130236",
                "name": "Battersea Park"
            }
        },
        {
            "type": "Feature",
            "geometry": {
                "type": "Point",
                "coordinates": [-0.0748259, 51.4948643]
            },
            "properties": {
                "id": "way/26163279",
                "name": "Bermondsey Spa Gardens"
            }
        },
        {
            "type": "Feature",
            "geometry": {
                "type": "Point",
                "coordinates": [-0.119992, 51.5244014]
            },
            "properties": {
                "id": "way/55737057",
                "name": "Coram's Fields"
            }
        },
        {
            "type": "Feature",
            "geometry": {
                "type": "Point",
                "coordinates": [-0.0931914, 51.4973484]
            },
            "properties": {
                "id": "way/44593191",
                "name": "Dickens' Fields"
            }
        },
        {
            "type": "Feature",
            "geometry": {
                "type": "Point",
                "coordinates": [-0.0967869, 51.4932663]
            },
            "properties": {
                "id": "way/691296799",
                "name": "Elephant Park"
            }
        },
        {
            "type": "Feature",
            "geometry": {
                "type": "Point",
                "coordinates": [-0.1085152, 51.4959219]
            },
            "properties": {
                "id": "way/8614502",
                "name": "Geraldine Mary Harmsworth Park"
            }
        },
        {
            "type": "Feature",
            "geometry": {
                "type": "Point",
                "coordinates": [-0.0677039, 51.5330692]
            },
            "properties": {
                "id": "way/8501796",
                "name": "Haggerston Park"
            }
        },
        {
            "type": "Feature",
            "geometry": {
                "type": "Point",
                "coordinates": [-0.2031275, 51.5027819]
            },
            "properties": {
                "id": "way/8137262",
                "name": "Holland Park"
            }
        },
        {
            "type": "Feature",
            "geometry": {
                "type": "Point",
                "coordinates": [-0.1630518, 51.5074147]
            },
            "properties": {
                "id": "way/372975520",
                "name": "Hyde Park"
            }
        },
        {
            "type": "Feature",
            "geometry": {
                "type": "Point",
                "coordinates": [-0.1802014, 51.5066483]
            },
            "properties": {
                "id": "way/3986346",
                "name": "Kensington Gardens"
            }
        },
        {
            "type": "Feature",
            "geometry": {
                "type": "Point",
                "coordinates": [-0.1131243, 51.4926096]
            },
            "properties": {
                "id": "way/79308654",
                "name": "Lambeth Walk Doorstep Green"
            }
        },
        {
            "type": "Feature",
            "geometry": {
                "type": "Point",
                "coordinates": [-0.1165698, 51.5162701]
            },
            "properties": {
                "id": "way/30613392",
                "name": "Lincoln's Inn Fields"
            }
        },
        {
            "type": "Feature",
            "geometry": {
                "type": "Point",
                "coordinates": [-0.0961447, 51.4976288]
            },
            "properties": {
                "id": "way/44425766",
                "name": "Newington Gardens"
            }
        },
        {
            "type": "Feature",
            "geometry": {
                "type": "Point",
                "coordinates": [-0.0910387, 51.4902302]
            },
            "properties": {
                "id": "way/22895152",
                "name": "Nursery Row Park"
            }
        },
        {
            "type": "Feature",
            "geometry": {
                "type": "Point",
                "coordinates": [-0.078101, 51.5041607]
            },
            "properties": {
                "id": "way/367694522",
                "name": "Potters Fields Park"
            }
        },
        {
            "type": "Feature",
            "geometry": {
                "type": "Point",
                "coordinates": [-0.1531496, 51.4869616]
            },
            "properties": {
                "id": "way/851136558",
                "name": "Ranelagh Gardens"
            }
        },
        {
            "type": "Feature",
            "geometry": {
                "type": "Point",
                "coordinates": [-0.0875617, 51.5384123]
            },
            "properties": {
                "id": "way/5122303",
                "name": "Rosemary Gardens"
            }
        },
        {
            "type": "Feature",
            "geometry": {
                "type": "Point",
                "coordinates": [-0.126069, 51.5216943]
            },
            "properties": {
                "id": "way/3241371",
                "name": "Russell Square"
            }
        },
        {
            "type": "Feature",
            "geometry": {
                "type": "Point",
                "coordinates": [-0.0873454, 51.4922954]
            },
            "properties": {
                "id": "way/22604638",
                "name": "Salisbury Row"
            }
        },
        {
            "type": "Feature",
            "geometry": {
                "type": "Point",
                "coordinates": [-0.0860094, 51.5346112]
            },
            "properties": {
                "id": "way/100610481",
                "name": "Shoreditch Park"
            }
        },
        {
            "type": "Feature",
            "geometry": {
                "type": "Point",
                "coordinates": [-0.1074384, 51.5255681]
            },
            "properties": {
                "id": "relation/2191175",
                "name": "Spa Fields"
            }
        },
        {
            "type": "Feature",
            "geometry": {
                "type": "Point",
                "coordinates": [-0.1210331, 51.526163]
            },
            "properties": {
                "id": "way/23231897",
                "name": "St George's Gardens"
            }
        },
        {
            "type": "Feature",
            "geometry": {
                "type": "Point",
                "coordinates": [-0.1345834, 51.4870369]
            },
            "properties": {
                "id": "way/23946211",
                "name": "St. George's Square"
            }
        },
        {
            "type": "Feature",
            "geometry": {
                "type": "Point",
                "coordinates": [-0.1344197, 51.5031135]
            },
            "properties": {
                "id": "way/374960368",
                "name": "St. James's Park"
            }
        },
        {
            "type": "Feature",
            "geometry": {
                "type": "Point",
                "coordinates": [-0.089085, 51.4986107]
            },
            "properties": {
                "id": "way/26248229",
                "name": "Tabard Gardens"
            }
        },
        {
            "type": "Feature",
            "geometry": {
                "type": "Point",
                "coordinates": [-0.1441729, 51.50452]
            },
            "properties": {
                "id": "way/863554956",
                "name": "The Green Park"
            }
        },
        {
            "type": "Feature",
            "geometry": {
                "type": "Point",
                "coordinates": [-0.1220497, 51.4828574]
            },
            "properties": {
                "id": "relation/14755741",
                "name": "Vauxhall Park"
            }
        },
        {
            "type": "Feature",
            "geometry": {
                "type": "Point",
                "coordinates": [-0.1207242, 51.4874704]
            },
            "properties": {
                "id": "way/4256264",
                "name": "Vauxhall Pleasure Gardens"
            }
        },
        {
            "type": "Feature",
            "geometry": {
                "type": "Point",
                "coordinates": [-0.121026, 51.5086189]
            },
            "properties": {
                "id": "way/4254099",
                "name": "Victoria Embankment Gardens"
            }
        },
        {
            "type": "Feature",
            "geometry": {
                "type": "Point",
                "coordinates": [-0.1248658, 51.4964596]
            },
            "properties": {
                "id": "way/4259687",
                "name": "Victoria Tower Gardens"
            }
        },
        {
            "type": "Feature",
            "geometry": {
                "type": "Point",
                "coordinates": [-0.0619794, 51.5252877]
            },
            "properties": {
                "id": "way/506841261",
                "name": "Weaver's Fields"
            }
        }
    ]
}
